{
  "type": "FeatureCollection",
  "features": [
    {
      "type": "Feature",
      "properties": {
        "norad_id": 66568,
        "name": "STARLINK-35803",
        "group": "last-30-days",
        "lat": 11.659196435452815,
        "lon": -157.2885601877807,
        "alt_km": 431.9868968546907,
        "timestamp": "2025-12-27T08:36:17.075576+00:00",
        "meta_object_name": "STARLINK-35803",
        "meta_object_id": "2025-268M",
        "meta_epoch": "2025-12-27T04:00:01.998720",
        "meta_mean_motion": 15.45057161,
        "meta_eccentricity": 0.0001058,
        "meta_inclination": 43.0002,
        "meta_ra_of_asc_node": 36.6173,
        "meta_arg_of_pericenter": 280.2621,
        "meta_mean_anomaly": 254.3549,
        "meta_ephemeris_type": 0,
        "meta_classification_type": "U",
        "meta_norad_cat_id": 66568,
        "meta_element_set_no": 999,
        "meta_rev_at_epoch": 605,
        "meta_bstar": -0.041086,
        "meta_mean_motion_dot": -0.01794309,
        "meta_mean_motion_ddot": 0,
        "tle_line1": "1 66568U 25268M   25361.16668980 -.01794309  00000+0 -41086-1 0  9999",
        "tle_line2": "2 66568  43.0002  36.6173 0001058 280.2621 254.3549 15.45057161  6051"
      },
      "geometry": {
        "type": "Point",
        "coordinates": [
          -157.2885601877807,
          11.659196435452815
        ]
      }
    },
    {
      "type": "Feature",
      "properties": {
        "norad_id": 66569,
        "name": "STARLINK-35835",
        "group": "last-30-days",
        "lat": -8.573681933317246,
        "lon": -135.25653275461275,
        "alt_km": 435.6487842144352,
        "timestamp": "2025-12-27T08:36:17.075586+00:00",
        "meta_object_name": "STARLINK-35835",
        "meta_object_id": "2025-268N",
        "meta_epoch": "2025-12-27T04:00:01.998720",
        "meta_mean_motion": 15.44660973,
        "meta_eccentricity": 9.73e-05,
        "meta_inclination": 42.9996,
        "meta_ra_of_asc_node": 36.5441,
        "meta_arg_of_pericenter": 272.2828,
        "meta_mean_anomaly": 292.521,
        "meta_ephemeris_type": 0,
        "meta_classification_type": "U",
        "meta_norad_cat_id": 66569,
        "meta_element_set_no": 999,
        "meta_rev_at_epoch": 605,
        "meta_bstar": -0.048353,
        "meta_mean_motion_dot": -0.02051139,
        "meta_mean_motion_ddot": 0,
        "tle_line1": "1 66569U 25268N   25361.16668980 -.02051139  00000+0 -48353-1 0  9992",
        "tle_line2": "2 66569  42.9996  36.5441 0000973 272.2828 292.5210 15.44660973  6053"
      },
      "geometry": {
        "type": "Point",
        "coordinates": [
          -135.25653275461275,
          -8.573681933317246
        ]
      }
    },
    {
      "type": "Feature",
      "properties": {
        "norad_id": 66570,
        "name": "STARLINK-35834",
        "group": "last-30-days",
        "lat": -26.08653628861172,
        "lon": 4.302961925401747,
        "alt_km": 479.8672798415273,
        "timestamp": "2025-12-27T08:36:17.075597+00:00",
        "meta_object_name": "STARLINK-35834",
        "meta_object_id": "2025-268P",
        "meta_epoch": "2025-12-27T04:00:01.998720",
        "meta_mean_motion": 15.30139814,
        "meta_eccentricity": 0.0001569,
        "meta_inclination": 43.001,
        "meta_ra_of_asc_node": 37.0845,
        "meta_arg_of_pericenter": 285.2431,
        "meta_mean_anomaly": 56.9908,
        "meta_ephemeris_type": 0,
        "meta_classification_type": "U",
        "meta_norad_cat_id": 66570,
        "meta_element_set_no": 999,
        "meta_rev_at_epoch": 605,
        "meta_bstar": -0.087822,
        "meta_mean_motion_dot": -0.02324664,
        "meta_mean_motion_ddot": 0,
        "tle_line1": "1 66570U 25268P   25361.16668980 -.02324664  00000+0 -87822-1 0  9994",
        "tle_line2": "2 66570  43.0010  37.0845 0001569 285.2431  56.9908 15.30139814  6050"
      },
      "geometry": {
        "type": "Point",
        "coordinates": [
          4.302961925401747,
          -26.08653628861172
        ]
      }
    },
    {
      "type": "Feature",
      "properties": {
        "norad_id": 66571,
        "name": "STARLINK-35836",
        "group": "last-30-days",
        "lat": -13.647453707487923,
        "lon": 20.84790807172808,
        "alt_km": 477.307284142571,
        "timestamp": "2025-12-27T08:36:17.075608+00:00",
        "meta_object_name": "STARLINK-35836",
        "meta_object_id": "2025-268Q",
        "meta_epoch": "2025-12-27T04:00:01.998720",
        "meta_mean_motion": 15.30808847,
        "meta_eccentricity": 9.39e-05,
        "meta_inclination": 43.001,
        "meta_ra_of_asc_node": 37.039,
        "meta_arg_of_pericenter": 247.3343,
        "meta_mean_anomaly": 114.3158,
        "meta_ephemeris_type": 0,
        "meta_classification_type": "U",
        "meta_norad_cat_id": 66571,
        "meta_element_set_no": 999,
        "meta_rev_at_epoch": 605,
        "meta_bstar": -0.07345,
        "meta_mean_motion_dot": -0.02017508,
        "meta_mean_motion_ddot": 0,
        "tle_line1": "1 66571U 25268Q   25361.16668980 -.02017508  00000+0 -73450-1 0  9993",
        "tle_line2": "2 66571  43.0010  37.0390 0000939 247.3343 114.3158 15.30808847  6052"
      },
      "geometry": {
        "type": "Point",
        "coordinates": [
          20.84790807172808,
          -13.647453707487923
        ]
      }
    },
    {
      "type": "Feature",
      "properties": {
        "norad_id": 66572,
        "name": "STARLINK-35870",
        "group": "last-30-days",
        "lat": 7.8279899211172665,
        "lon": 44.357812396433346,
        "alt_km": 470.80757856388936,
        "timestamp": "2025-12-27T08:36:17.075618+00:00",
        "meta_object_name": "STARLINK-35870",
        "meta_object_id": "2025-268R",
        "meta_epoch": "2025-12-27T04:00:01.998720",
        "meta_mean_motion": 15.32237826,
        "meta_eccentricity": 0.0001414,
        "meta_inclination": 43.0014,
        "meta_ra_of_asc_node": 36.9651,
        "meta_arg_of_pericenter": 258.7716,
        "meta_mean_anomaly": 133.6567,
        "meta_ephemeris_type": 0,
        "meta_classification_type": "U",
        "meta_norad_cat_id": 66572,
        "meta_element_set_no": 999,
        "meta_rev_at_epoch": 605,
        "meta_bstar": -0.070111,
        "meta_mean_motion_dot": -0.02014962,
        "meta_mean_motion_ddot": 0,
        "tle_line1": "1 66572U 25268R   25361.16668980 -.02014962  00000+0 -70111-1 0  9996",
        "tle_line2": "2 66572  43.0014  36.9651 0001414 258.7716 133.6567 15.32237826  6057"
      },
      "geometry": {
        "type": "Point",
        "coordinates": [
          44.357812396433346,
          7.8279899211172665
        ]
      }
    },
    {
      "type": "Feature",
      "properties": {
        "norad_id": 66573,
        "name": "STARLINK-35650",
        "group": "last-30-days",
        "lat": 19.886808816662665,
        "lon": 58.669940908394246,
        "alt_km": 466.6757770945187,
        "timestamp": "2025-12-27T08:36:17.075629+00:00",
        "meta_object_name": "STARLINK-35650",
        "meta_object_id": "2025-268S",
        "meta_epoch": "2025-12-27T04:00:01.998720",
        "meta_mean_motion": 15.33089208,
        "meta_eccentricity": 0.0001424,
        "meta_inclination": 43.0011,
        "meta_ra_of_asc_node": 36.9215,
        "meta_arg_of_pericenter": 264.3449,
        "meta_mean_anomaly": 145.8956,
        "meta_ephemeris_type": 0,
        "meta_classification_type": "U",
        "meta_norad_cat_id": 66573,
        "meta_element_set_no": 999,
        "meta_rev_at_epoch": 599,
        "meta_bstar": -0.069307,
        "meta_mean_motion_dot": -0.02043423,
        "meta_mean_motion_ddot": 0,
        "tle_line1": "1 66573U 25268S   25361.16668980 -.02043423  00000+0 -69307-1 0  9996",
        "tle_line2": "2 66573  43.0011  36.9215 0001424 264.3449 145.8956 15.33089208  5997"
      },
      "geometry": {
        "type": "Point",
        "coordinates": [
          58.669940908394246,
          19.886808816662665
        ]
      }
    },
    {
      "type": "Feature",
      "properties": {
        "norad_id": 66574,
        "name": "STARLINK-35812",
        "group": "last-30-days",
        "lat": 30.324183555227055,
        "lon": 74.6647701652042,
        "alt_km": 462.53616738575784,
        "timestamp": "2025-12-27T08:36:17.075639+00:00",
        "meta_object_name": "STARLINK-35812",
        "meta_object_id": "2025-268T",
        "meta_epoch": "2025-12-27T04:00:01.998720",
        "meta_mean_motion": 15.33913536,
        "meta_eccentricity": 0.0001299,
        "meta_inclination": 43.0005,
        "meta_ra_of_asc_node": 36.8793,
        "meta_arg_of_pericenter": 274.8067,
        "meta_mean_anomaly": 152.6938,
        "meta_ephemeris_type": 0,
        "meta_classification_type": "U",
        "meta_norad_cat_id": 66574,
        "meta_element_set_no": 999,
        "meta_rev_at_epoch": 605,
        "meta_bstar": -0.066372,
        "meta_mean_motion_dot": -0.02012233,
        "meta_mean_motion_ddot": 0,
        "tle_line1": "1 66574U 25268T   25361.16668980 -.02012233  00000+0 -66372-1 0  9991",
        "tle_line2": "2 66574  43.0005  36.8793 0001299 274.8067 152.6938 15.33913536  6057"
      },
      "geometry": {
        "type": "Point",
        "coordinates": [
          74.6647701652042,
          30.324183555227055
        ]
      }
    }
  ]
}